SALSAT                  
1 46495U 20068K   26068.93497459  .00011156  00000+0  40843-3 0  9991
2 46495  97.8859  66.0795 0008265 295.8051  64.2334 15.28191989300198
NUSAT-50 (NANCY ROMAN)  
1 60493U 24149AB  26068.80227738  .00012094  00000+0  42252-3 0  9994
2 60493  97.3817 150.7693 0002522 238.0469 122.0527 15.29713355 86939
